ONEWEB-0687             
1 61595U 24188B   24315.50507170  .00005581  00000+0  68766-3 0  9993
2 61595  86.5792 161.3597 0005607 127.8742 232.2989 14.82758926  6122
ONEWEB-0688             
1 61596U 24188C   24315.50781279  .00006083  00000+0  75066-3 0  9997
2 61596  86.5801 161.3688 0005100 127.6655 232.5031 14.82712244  6128
ONEWEB-0689             
1 61597U 24188D   24315.51089937  .00006254  00000+0  76639-3 0  9998
2 61597  86.5730 161.3627 0003345 121.4309 238.7242 14.83017853  6127
ONEWEB-0690             
1 61598U 24188E   24315.83535481  .00006046  00000+0  73762-3 0  9997
2 61598  86.5787 161.2096 0007107 130.8887 229.2953 14.83178795  4286
ONEWEB-0691             
1 61599U 24188F   24315.84004499  .00006121  00000+0  75432-3 0  9999
2 61599  86.5823 161.2223 0006184 131.3284 228.8472 14.82769052  4441
ONEWEB-0692             
1 61600U 24188G   24315.85181718  .00006185  00000+0  75785-3 0  9994
2 61600  86.5752 161.2304 0003094 134.8631 225.2843 14.83017283  4385
ONEWEB-0693             
1 61601U 24188H   24315.51179615  .00015906  00000+0  19473-2 0  9993
2 61601  86.5715 161.3614 0003407 123.3717 236.7832 14.83105418  6123
ONEWEB-0695             
1 61602U 24188J   24315.51288125  .00000479  00000+0  55863-4 0  9995
2 61602  86.5773 161.3761 0003211 118.2660 241.8887 14.82885255  4368
